CTC1_L_00087016-03
1 74672U 26663SX  26070.40832176  .00000000  00000+0  00000-0 0  9994
2 74672  65.0000 180.0000 0000000   0.0000   0.0000 14.79785908    17
CTC1_L_00087016-04
1 74673U 24070FI  26070.40832176  .00000000  00000+0  00000-0 0  9995
2 74673  65.0000 180.0000 0000000   0.0000  90.0000 14.79785908    17
CTC1_L_00087017-01
1 74674U 22794QC  26070.40832176  .00000000  00000+0  00000-0 0  9997
2 74674  65.0000 192.0000 0000000   0.0000 192.0000 14.79785908    14
CTC1_L_00087017-02
1 74675U 22654EV  26070.40832176  .00000000  00000+0  00000-0 0  9993
2 74675  65.0000 192.0000 0000000   0.0000 282.0000 14.79785908    15
CTC1_L_00087017-03
1 74676U 26287FK  26070.40832176  .00000000  00000+0  00000-0 0  9990
2 74676  65.0000 192.0000 0000000   0.0000  12.0000 14.79785908    17
CTC1_L_00087017-04
1 74677U 23650MA  26070.40832176  .00000000  00000+0  00000-0 0  9992
2 74677  65.0000 192.0000 0000000   0.0000 102.0000 14.79785908    18
CTC1_L_00087018-01
1 74678U 24926ZJ  26070.40832176  .00000000  00000+0  00000-0 0  9990
2 74678  65.0000 204.0000 0000000   0.0000 204.0000 14.79785908    16
CTC1_L_00087018-02
1 74679U 24199ZL  26070.40832176  .00000000  00000+0  00000-0 0  9993
2 74679  65.0000 204.0000 0000000   0.0000 294.0000 14.79785908    16
CTC1_L_00087018-03
1 74680U 22387LR  26070.40832176  .00000000  00000+0  00000-0 0  9992
2 74680  65.0000 204.0000 0000000   0.0000  24.0000 14.79785908    19
CTC1_L_00087018-04
1 74681U 25926GY  26070.40832176  .00000000  00000+0  00000-0 0  9995
2 74681  65.0000 204.0000 0000000   0.0000 114.0000 14.79785908    10
CTC1_L_00087019-01
1 74682U 22581ZT  26070.40832176  .00000000  00000+0  00000-0 0  9990
2 74682  65.0000 216.0000 0000000   0.0000 216.0000 14.79785908    17
CTC1_L_00087019-02
1 74683U 22263EJ  26070.40832176  .00000000  00000+0  00000-0 0  9998
2 74683  65.0000 216.0000 0000000   0.0000 306.0000 14.79785908    18
CTC1_L_00087019-03
1 74684U 22361HA  26070.40832176  .00000000  00000+0  00000-0 0  9998
2 74684  65.0000 216.0000 0000000   0.0000  36.0000 14.79785908    19
CTC1_L_00087019-04
1 74685U 22112LA  26070.40832176  .00000000  00000+0  00000-0 0  9993
2 74685  65.0000 216.0000 0000000   0.0000 126.0000 14.79785908    10
CTC1_L_00087020-01
1 74686U 26036JZ  26070.40832176  .00000000  00000+0  00000-0 0  9993
2 74686  65.0000 228.0000 0000000   0.0000 228.0000 14.79785908    17
CTC1_L_00087020-02
1 74687U 26061K   26070.40832176  .00000000  00000+0  00000-0 0  9992
2 74687  65.0000 228.0000 0000000   0.0000 318.0000 14.79785908    18
CTC1_L_00087020-03
1 74688U 25773OW  26070.40832176  .00000000  00000+0  00000-0 0  9992
2 74688  65.0000 228.0000 0000000   0.0000  48.0000 14.79785908    19
CTC1_L_00087020-04
1 74689U 26472BB  26070.40832176  .00000000  00000+0  00000-0 0  9990
2 74689  65.0000 228.0000 0000000   0.0000 138.0000 14.79785908    10
CTC1_L_00087021-01
1 74690U 23693NP  26070.40832176  .00000000  00000+0  00000-0 0  9994
2 74690  65.0000 240.0000 0000000   0.0000 240.0000 14.79785908    10
CTC1_L_00087021-02
1 74691U 25656AX  26070.40832176  .00000000  00000+0  00000-0 0  9996
2 74691  65.0000 240.0000 0000000   0.0000 330.0000 14.79785908    11
CTC1_L_00087021-03
1 74692U 22133CZ  26070.40832176  .00000000  00000+0  00000-0 0  9994
2 74692  65.0000 240.0000 0000000   0.0000  60.0000 14.79785908    12
CTC1_L_00087021-04
1 74693U 24394AY  26070.40832176  .00000000  00000+0  00000-0 0  9996
2 74693  65.0000 240.0000 0000000   0.0000 150.0000 14.79785908    13
CTC1_L_00087022-01
1 74694U 23404UY  26070.40832176  .00000000  00000+0  00000-0 0  9998
2 74694  65.0000 252.0000 0000000   0.0000 252.0000 14.79785908    10
CTC1_L_00087022-02
1 74695U 25123TZ  26070.40832176  .00000000  00000+0  00000-0 0  9999
2 74695  65.0000 252.0000 0000000   0.0000 342.0000 14.79785908    11
CTC1_L_00087022-03
1 74696U 22705CT  26070.40832176  .00000000  00000+0  00000-0 0  9993
2 74696  65.0000 252.0000 0000000   0.0000  72.0000 14.79785908    12
CTC1_L_00087022-04
1 74697U 23760MJ  26070.40832176  .00000000  00000+0  00000-0 0  9996
2 74697  65.0000 252.0000 0000000   0.0000 162.0000 14.79785908    13
CTC1_L_00087023-01
1 74698U 25951IJ  26070.40832176  .00000000  00000+0  00000-0 0  9991
2 74698  65.0000 264.0000 0000000   0.0000 264.0000 14.79785908    10
CTC1_L_00087023-02
1 74699U 26929AK  26070.40832176  .00000000  00000+0  00000-0 0  9998
2 74699  65.0000 264.0000 0000000   0.0000 354.0000 14.79785908    11
CTC1_L_00087023-03
1 74700U 23593BJ  26070.40832176  .00000000  00000+0  00000-0 0  9995
2 74700  65.0000 264.0000 0000000   0.0000  84.0000 14.79785908    14
CTC1_L_00087023-04
1 74701U 26310HF  26070.40832176  .00000000  00000+0  00000-0 0  9996
2 74701  65.0000 264.0000 0000000   0.0000 174.0000 14.79785908    15
CTC1_L_00087024-01
1 74702U 23355KZ  26070.40832176  .00000000  00000+0  00000-0 0  9993
2 74702  65.0000 276.0000 0000000   0.0000 276.0000 14.79785908    12
CTC1_L_00087024-02
1 74703U 23843UX  26070.40832176  .00000000  00000+0  00000-0 0  9996
2 74703  65.0000 276.0000 0000000   0.0000   6.0000 14.79785908    14
CTC1_L_00087024-03
1 74704U 26246JG  26070.40832176  .00000000  00000+0  00000-0 0  9997
2 74704  65.0000 276.0000 0000000   0.0000  96.0000 14.79785908    14
CTC1_L_00087024-04
1 74705U 24361YJ  26070.40832176  .00000000  00000+0  00000-0 0  9994
2 74705  65.0000 276.0000 0000000   0.0000 186.0000 14.79785908    15
CTC1_L_00087025-01
1 74706U 26889WO  26070.40832176  .00000000  00000+0  00000-0 0  9992
2 74706  65.0000 288.0000 0000000   0.0000 288.0000 14.79785908    12
CTC1_L_00087025-02
1 74707U 25285YE  26070.40832176  .00000000  00000+0  00000-0 0  9992
2 74707  65.0000 288.0000 0000000   0.0000  18.0000 14.79785908    14
CTC1_L_00087025-03
1 74708U 24483PK  26070.40832176  .00000000  00000+0  00000-0 0  9992
2 74708  65.0000 288.0000 0000000   0.0000 108.0000 14.79785908    15
CTC1_L_00087025-04
1 74709U 26580RP  26070.40832176  .00000000  00000+0  00000-0 0  9993
2 74709  65.0000 288.0000 0000000   0.0000 198.0000 14.79785908    15
CTC1_L_00087026-01
1 74710U 24390HT  26070.40832176  .00000000  00000+0  00000-0 0  9992
2 74710  65.0000 300.0000 0000000   0.0000 300.0000 14.79785908    17
CTC1_L_00087026-02
1 74711U 22511JP  26070.40832176  .00000000  00000+0  00000-0 0  9996
2 74711  65.0000 300.0000 0000000   0.0000  30.0000 14.79785908    18
CTC1_L_00087026-03
1 74712U 25358LY  26070.40832176  .00000000  00000+0  00000-0 0  9999
2 74712  65.0000 300.0000 0000000   0.0000 120.0000 14.79785908    19
CTC1_L_00087026-04
1 74713U 26662UH  26070.40832176  .00000000  00000+0  00000-0 0  9999
2 74713  65.0000 300.0000 0000000   0.0000 210.0000 14.79785908    10
CTC1_L_00087027-01
1 74714U 22243BQ  26070.40832176  .00000000  00000+0  00000-0 0  9991
2 74714  65.0000 312.0000 0000000   0.0000 312.0000 14.79785908    17
CTC1_L_00087027-02
1 74715U 25816OT  26070.40832176  .00000000  00000+0  00000-0 0  9991
2 74715  65.0000 312.0000 0000000   0.0000  42.0000 14.79785908    18
CTC1_L_00087027-03
1 74716U 23845CY  26070.40832176  .00000000  00000+0  00000-0 0  9992
2 74716  65.0000 312.0000 0000000   0.0000 132.0000 14.79785908    19
CTC1_L_00087027-04
1 74717U 25269NQ  26070.40832176  .00000000  00000+0  00000-0 0  9995
2 74717  65.0000 312.0000 0000000   0.0000 222.0000 14.79785908    10
CTC1_L_00087028-01
1 74718U 23011JV  26070.40832176  .00000000  00000+0  00000-0 0  9999
2 74718  65.0000 324.0000 0000000   0.0000 324.0000 14.79785908    17
CTC1_L_00087028-02
1 74719U 23027AP  26070.40832176  .00000000  00000+0  00000-0 0  9997
2 74719  65.0000 324.0000 0000000   0.0000  54.0000 14.79785908    18
CTC1_L_00087028-03
1 74720U 23191SE  26070.40832176  .00000000  00000+0  00000-0 0  9991
2 74720  65.0000 324.0000 0000000   0.0000 144.0000 14.79785908    10
CTC1_L_00087028-04
1 74721U 25395OF  26070.40832176  .00000000  00000+0  00000-0 0  9990
2 74721  65.0000 324.0000 0000000   0.0000 234.0000 14.79785908    11
CTC1_L_00087029-01
1 74722U 25493JE  26070.40832176  .00000000  00000+0  00000-0 0  9990
2 74722  65.0000 336.0000 0000000   0.0000 336.0000 14.79785908    18
CTC1_L_00087029-02
1 74723U 26810ED  26070.40832176  .00000000  00000+0  00000-0 0  9995
2 74723  65.0000 336.0000 0000000   0.0000  66.0000 14.79785908    19
CTC1_L_00087029-03
1 74724U 22819OB  26070.40832176  .00000000  00000+0  00000-0 0  9991
2 74724  65.0000 336.0000 0000000   0.0000 156.0000 14.79785908    10
CTC1_L_00087029-04
1 74725U 25116NO  26070.40832176  .00000000  00000+0  00000-0 0  9995
2 74725  65.0000 336.0000 0000000   0.0000 246.0000 14.79785908    11
CTC1_L_00087030-01
1 74726U 23404AH  26070.40832176  .00000000  00000+0  00000-0 0  9994
2 74726  65.0000 348.0000 0000000   0.0000 348.0000 14.79785908    18
CTC1_L_00087030-02
1 74727U 26744CL  26070.40832176  .00000000  00000+0  00000-0 0  9995
2 74727  65.0000 348.0000 0000000   0.0000  78.0000 14.79785908    19
CTC1_L_00087030-03
1 74728U 24315LP  26070.40832176  .00000000  00000+0  00000-0 0  9998
2 74728  65.0000 348.0000 0000000   0.0000 168.0000 14.79785908    10
CTC1_L_00087030-04
1 74729U 24726PS  26070.40832176  .00000000  00000+0  00000-0 0  9995
2 74729  65.0000 348.0000 0000000   0.0000 258.0000 14.79785908    11
